[{"OBJECT_NAME":"ONEWEB-0044","OBJECT_ID":"2020-008V","EPOCH":"2026-03-31T02:50:30.097824","MEAN_MOTION":13.10369477,"ECCENTRICITY":0.0001845,"INCLINATION":87.8819,"RA_OF_ASC_NODE":51.797,"ARG_OF_PERICENTER":87.8227,"MEAN_ANOMALY":272.3112,"EPHEMERIS_TYPE":0,"CLASSIFICATION_TYPE":"U","NORAD_CAT_ID":45150,"ELEMENT_SET_NO":999,"REV_AT_EPOCH":29825,"BSTAR":0.0013197,"MEAN_MOTION_DOT":4.73e-06,"MEAN_MOTION_DDOT":0.0},{"OBJECT_NAME":"ONEWEB-0045","OBJECT_ID":"2020-008W","EPOCH":"2026-03-31T06:21:06.009696","MEAN_MOTION":13.11418036,"ECCENTRICITY":0.0001836,"INCLINATION":87.8912,"RA_OF_ASC_NODE":36.5422,"ARG_OF_PERICENTER":83.3306,"MEAN_ANOMALY":276.8031,"EPHEMERIS_TYPE":0,"CLASSIFICATION_TYPE":"U","NORAD_CAT_ID":45151,"ELEMENT_SET_NO":999,"REV_AT_EPOCH":30019,"BSTAR":-0.0012745,"MEAN_MOTION_DOT":-4.39e-06,"MEAN_MOTION_DDOT":0.0},{"OBJECT_NAME":"ONEWEB-0047","OBJECT_ID":"2020-008X","EPOCH":"2026-03-30T23:01:01.754112","MEAN_MOTION":13.10373001,"ECCENTRICITY":0.0002069,"INCLINATION":87.8815,"RA_OF_ASC_NODE":51.83,"ARG_OF_PERICENTER":81.9203,"MEAN_ANOMALY":278.2159,"EPHEMERIS_TYPE":0,"CLASSIFICATION_TYPE":"U","NORAD_CAT_ID":45152,"ELEMENT_SET_NO":999,"REV_AT_EPOCH":29795,"BSTAR":0.0018318000000000002,"MEAN_MOTION_DOT":6.52e-06,"MEAN_MOTION_DDOT":0.0},{"OBJECT_NAME":"ONEWEB-0048","OBJECT_ID":"2020-008Y","EPOCH":"2026-03-31T04:23:43.411776","MEAN_MOTION":13.10374314,"ECCENTRICITY":0.0001974,"INCLINATION":87.881,"RA_OF_ASC_NODE":51.8115,"ARG_OF_PERICENTER":81.7795,"MEAN_ANOMALY":278.3556,"EPHEMERIS_TYPE":0,"CLASSIFICATION_TYPE":"U","NORAD_CAT_ID":45153,"ELEMENT_SET_NO":999,"REV_AT_EPOCH":29759,"BSTAR":0.0016274,"MEAN_MOTION_DOT":5.81e-06,"MEAN_MOTION_DDOT":0.0},{"OBJECT_NAME":"ONEWEB-0049","OBJECT_ID":"2020-008Z","EPOCH":"2026-03-31T04:28:18.600960","MEAN_MOTION":13.10373445,"ECCENTRICITY":0.000149,"INCLINATION":87.881,"RA_OF_ASC_NODE":51.7988,"ARG_OF_PERICENTER":74.7266,"MEAN_ANOMALY":285.4026,"EPHEMERIS_TYPE":0,"CLASSIFICATION_TYPE":"U","NORAD_CAT_ID":45154,"ELEMENT_SET_NO":999,"REV_AT_EPOCH":29781,"BSTAR":0.0019447000000000002,"MEAN_MOTION_DOT":6.92e-06,"MEAN_MOTION_DDOT":0.0},{"OBJECT_NAME":"ONEWEB-0051","OBJECT_ID":"2020-008AA","EPOCH":"2026-03-31T06:18:38.384064","MEAN_MOTION":13.11418465,"ECCENTRICITY":0.0001852,"INCLINATION":87.891,"RA_OF_ASC_NODE":36.5547,"ARG_OF_PERICENTER":80.1683,"MEAN_ANOMALY":279.9654,"EPHEMERIS_TYPE":0,"CLASSIFICATION_TYPE":"U","NORAD_CAT_ID":45155,"ELEMENT_SET_NO":999,"REV_AT_EPOCH":30087,"BSTAR":-0.0014434,"MEAN_MOTION_DOT":-4.99e-06,"MEAN_MOTION_DDOT":0.0},{"OBJECT_NAME":"ONEWEB-0052","OBJECT_ID":"2020-008AB","EPOCH":"2026-03-31T02:59:17.699424","MEAN_MOTION":13.08820811,"ECCENTRICITY":0.0001422,"INCLINATION":87.8813,"RA_OF_ASC_NODE":51.7921,"ARG_OF_PERICENTER":77.9615,"MEAN_ANOMALY":282.1671,"EPHEMERIS_TYPE":0,"CLASSIFICATION_TYPE":"U","NORAD_CAT_ID":45156,"ELEMENT_SET_NO":999,"REV_AT_EPOCH":29771,"BSTAR":0.00088615,"MEAN_MOTION_DOT":3.15e-06,"MEAN_MOTION_DDOT":0.0},{"OBJECT_NAME":"ONEWEB-0053","OBJECT_ID":"2020-008AC","EPOCH":"2026-03-31T03:55:00.527520","MEAN_MOTION":13.10376259,"ECCENTRICITY":0.0001481,"INCLINATION":87.8811,"RA_OF_ASC_NODE":51.8126,"ARG_OF_PERICENTER":91.402,"MEAN_ANOMALY":268.7277,"EPHEMERIS_TYPE":0,"CLASSIFICATION_TYPE":"U","NORAD_CAT_ID":45157,"ELEMENT_SET_NO":999,"REV_AT_EPOCH":29769,"BSTAR":-0.0011126999999999999,"MEAN_MOTION_DOT":-3.76e-06,"MEAN_MOTION_DDOT":0.0},{"OBJECT_NAME":"ONEWEB-0054","OBJECT_ID":"2020-008AD","EPOCH":"2026-03-31T06:35:10.398624","MEAN_MOTION":13.10372083,"ECCENTRICITY":0.0001849,"INCLINATION":87.8816,"RA_OF_ASC_NODE":51.7667,"ARG_OF_PERICENTER":80.6162,"MEAN_ANOMALY":279.5175,"EPHEMERIS_TYPE":0,"CLASSIFICATION_TYPE":"U","NORAD_CAT_ID":45158,"ELEMENT_SET_NO":999,"REV_AT_EPOCH":29782,"BSTAR":0.0013979,"MEAN_MOTION_DOT":5.01e-06,"MEAN_MOTION_DDOT":0.0},{"OBJECT_NAME":"ONEWEB-0056","OBJECT_ID":"2020-008AE","EPOCH":"2026-03-31T04:17:44.524320","MEAN_MOTION":13.10375141,"ECCENTRICITY":0.0001797,"INCLINATION":87.8816,"RA_OF_ASC_NODE":51.7853,"ARG_OF_PERICENTER":76.6117,"MEAN_ANOMALY":283.5211,"EPHEMERIS_TYPE":0,"CLASSIFICATION_TYPE":"U","NORAD_CAT_ID":45159,"ELEMENT_SET_NO":999,"REV_AT_EPOCH":29796,"BSTAR":0.0012387,"MEAN_MOTION_DOT":4.45e-06,"MEAN_MOTION_DDOT":0.0},{"OBJECT_NAME":"ONEWEB-0057","OBJECT_ID":"2020-008AF","EPOCH":"2026-03-31T04:28:42.100032","MEAN_MOTION":13.10376675,"ECCENTRICITY":0.000148,"INCLINATION":87.8813,"RA_OF_ASC_NODE":51.7929,"ARG_OF_PERICENTER":91.5169,"MEAN_ANOMALY":268.6128,"EPHEMERIS_TYPE":0,"CLASSIFICATION_TYPE":"U","NORAD_CAT_ID":45160,"ELEMENT_SET_NO":999,"REV_AT_EPOCH":29813,"BSTAR":0.0021216,"MEAN_MOTION_DOT":7.53e-06,"MEAN_MOTION_DDOT":0.0},{"OBJECT_NAME":"ONEWEB-0058","OBJECT_ID":"2020-008AG","EPOCH":"2026-03-31T04:09:32.990400","MEAN_MOTION":13.10373348,"ECCENTRICITY":0.0002124,"INCLINATION":87.8816,"RA_OF_ASC_NODE":51.8044,"ARG_OF_PERICENTER":83.5936,"MEAN_ANOMALY":276.5433,"EPHEMERIS_TYPE":0,"CLASSIFICATION_TYPE":"U","NORAD_CAT_ID":45161,"ELEMENT_SET_NO":999,"REV_AT_EPOCH":29820,"BSTAR":0.00075108,"MEAN_MOTION_DOT":2.75e-06,"MEAN_MOTION_DDOT":0.0},{"OBJECT_NAME":"ONEWEB-0059","OBJECT_ID":"2020-008AH","EPOCH":"2026-03-30T22:34:43.765248","MEAN_MOTION":13.10377227,"ECCENTRICITY":0.0001896,"INCLINATION":87.8811,"RA_OF_ASC_NODE":51.8512,"ARG_OF_PERICENTER":87.3815,"MEAN_ANOMALY":272.7529,"EPHEMERIS_TYPE":0,"CLASSIFICATION_TYPE":"U","NORAD_CAT_ID":45162,"ELEMENT_SET_NO":999,"REV_AT_EPOCH":29807,"BSTAR":0.00028294,"MEAN_MOTION_DOT":1.11e-06,"MEAN_MOTION_DDOT":0.0},{"OBJECT_NAME":"ONEWEB-0062","OBJECT_ID":"2020-008AJ","EPOCH":"2026-03-31T02:51:41.792544","MEAN_MOTION":13.10369864,"ECCENTRICITY":0.0002316,"INCLINATION":87.8814,"RA_OF_ASC_NODE":51.7991,"ARG_OF_PERICENTER":80.2833,"MEAN_ANOMALY":279.8556,"EPHEMERIS_TYPE":0,"CLASSIFICATION_TYPE":"U","NORAD_CAT_ID":45163,"ELEMENT_SET_NO":999,"REV_AT_EPOCH":29796,"BSTAR":0.0012825,"MEAN_MOTION_DOT":4.6e-06,"MEAN_MOTION_DDOT":0.0},{"OBJECT_NAME":"ONEWEB-0065","OBJECT_ID":"2020-008AK","EPOCH":"2026-03-31T03:35:40.607520","MEAN_MOTION":13.10373452,"ECCENTRICITY":0.0001519,"INCLINATION":87.8813,"RA_OF_ASC_NODE":51.8007,"ARG_OF_PERICENTER":79.0576,"MEAN_ANOMALY":281.0722,"EPHEMERIS_TYPE":0,"CLASSIFICATION_TYPE":"U","NORAD_CAT_ID":45164,"ELEMENT_SET_NO":999,"REV_AT_EPOCH":29766,"BSTAR":-0.0022574,"MEAN_MOTION_DOT":-7.75e-06,"MEAN_MOTION_DDOT":0.0},{"OBJECT_NAME":"ONEWEB-0066","OBJECT_ID":"2020-020A","EPOCH":"2026-03-31T05:56:40.537824","MEAN_MOTION":13.11415936,"ECCENTRICITY":0.000191,"INCLINATION":87.8912,"RA_OF_ASC_NODE":36.5599,"ARG_OF_PERICENTER":85.3417,"MEAN_ANOMALY":274.7929,"EPHEMERIS_TYPE":0,"CLASSIFICATION_TYPE":"U","NORAD_CAT_ID":45424,"ELEMENT_SET_NO":999,"REV_AT_EPOCH":29246,"BSTAR":-0.0008086600000000001,"MEAN_MOTION_DOT":-2.74e-06,"MEAN_MOTION_DDOT":0.0},{"OBJECT_NAME":"ONEWEB-0067","OBJECT_ID":"2020-020B","EPOCH":"2026-03-31T05:00:43.956576","MEAN_MOTION":13.11419622,"ECCENTRICITY":0.0001706,"INCLINATION":87.8924,"RA_OF_ASC_NODE":36.4785,"ARG_OF_PERICENTER":84.7002,"MEAN_ANOMALY":275.4321,"EPHEMERIS_TYPE":0,"CLASSIFICATION_TYPE":"U","NORAD_CAT_ID":45425,"ELEMENT_SET_NO":999,"REV_AT_EPOCH":29251,"BSTAR":0.0006837999999999999,"MEAN_MOTION_DOT":2.55e-06,"MEAN_MOTION_DDOT":0.0},{"OBJECT_NAME":"ONEWEB-0080","OBJECT_ID":"2020-020C","EPOCH":"2026-03-31T05:00:36.595296","MEAN_MOTION":13.11416618,"ECCENTRICITY":0.0002185,"INCLINATION":87.8908,"RA_OF_ASC_NODE":36.5602,"ARG_OF_PERICENTER":77.336,"MEAN_ANOMALY":282.8012,"EPHEMERIS_TYPE":0,"CLASSIFICATION_TYPE":"U","NORAD_CAT_ID":45426,"ELEMENT_SET_NO":999,"REV_AT_EPOCH":29248,"BSTAR":0.0006525,"MEAN_MOTION_DOT":2.44e-06,"MEAN_MOTION_DDOT":0.0},{"OBJECT_NAME":"ONEWEB-0090","OBJECT_ID":"2020-020D","EPOCH":"2026-03-31T05:42:14.366592","MEAN_MOTION":13.1141631,"ECCENTRICITY":0.0001888,"INCLINATION":87.8909,"RA_OF_ASC_NODE":36.5601,"ARG_OF_PERICENTER":79.1636,"MEAN_ANOMALY":280.9705,"EPHEMERIS_TYPE":0,"CLASSIFICATION_TYPE":"U","NORAD_CAT_ID":45427,"ELEMENT_SET_NO":999,"REV_AT_EPOCH":29245,"BSTAR":0.00059922,"MEAN_MOTION_DOT":2.25e-06,"MEAN_MOTION_DDOT":0.0},{"OBJECT_NAME":"ONEWEB-0061","OBJECT_ID":"2020-020E","EPOCH":"2026-03-31T06:28:13.001088","MEAN_MOTION":13.11418222,"ECCENTRICITY":0.0001915,"INCLINATION":87.8909,"RA_OF_ASC_NODE":36.5394,"ARG_OF_PERICENTER":80.4876,"MEAN_ANOMALY":279.6468,"EPHEMERIS_TYPE":0,"CLASSIFICATION_TYPE":"U","NORAD_CAT_ID":45428,"ELEMENT_SET_NO":999,"REV_AT_EPOCH":29241,"BSTAR":-0.00089096,"MEAN_MOTION_DOT":-3.03e-06,"MEAN_MOTION_DDOT":0.0},{"OBJECT_NAME":"ONEWEB-0081","OBJECT_ID":"2020-020F","EPOCH":"2026-03-30T20:52:13.437408","MEAN_MOTION":13.11414063,"ECCENTRICITY":0.0001772,"INCLINATION":87.89,"RA_OF_ASC_NODE":36.6343,"ARG_OF_PERICENTER":86.6812,"MEAN_ANOMALY":273.4519,"EPHEMERIS_TYPE":0,"CLASSIFICATION_TYPE":"U","NORAD_CAT_ID":45429,"ELEMENT_SET_NO":999,"REV_AT_EPOCH":29247,"BSTAR":-0.0013759,"MEAN_MOTION_DOT":-4.75e-06,"MEAN_MOTION_DDOT":0.0},{"OBJECT_NAME":"ONEWEB-0069","OBJECT_ID":"2020-020G","EPOCH":"2026-03-31T05:45:41.385312","MEAN_MOTION":13.11413463,"ECCENTRICITY":0.0001801,"INCLINATION":87.8905,"RA_OF_ASC_NODE":36.5549,"ARG_OF_PERICENTER":82.3238,"MEAN_ANOMALY":277.8094,"EPHEMERIS_TYPE":0,"CLASSIFICATION_TYPE":"U","NORAD_CAT_ID":45430,"ELEMENT_SET_NO":999,"REV_AT_EPOCH":29245,"BSTAR":0.00025661,"MEAN_MOTION_DOT":1.04e-06,"MEAN_MOTION_DDOT":0.0},{"OBJECT_NAME":"ONEWEB-0031","OBJECT_ID":"2020-020H","EPOCH":"2026-03-31T05:05:24.950976","MEAN_MOTION":13.11419085,"ECCENTRICITY":0.0002045,"INCLINATION":87.8902,"RA_OF_ASC_NODE":36.5768,"ARG_OF_PERICENTER":77.6829,"MEAN_ANOMALY":282.4528,"EPHEMERIS_TYPE":0,"CLASSIFICATION_TYPE":"U","NORAD_CAT_ID":45431,"ELEMENT_SET_NO":999,"REV_AT_EPOCH":29243,"BSTAR":0.0010915,"MEAN_MOTION_DOT":4e-06,"MEAN_MOTION_DDOT":0.0}]